NORAD_CAT_ID,OBJECT_NAME,OBJECT_TYPE,EPOCH,MEAN_MOTION,ECCENTRICITY,INCLINATION,RA_OF_ASC_NODE,ARG_OF_PERICENTER,MEAN_ANOMALY,BSTAR,MEAN_MOTION_DOT,MEAN_MOTION_DDOT,TLE_LINE0,TLE_LINE1,TLE_LINE2,SEMIMAJOR_AXIS,PERIOD,APOGEE,PERIGEE,DECAYED
49753.0,STARLINK-3200,PAYLOAD,2022-06-08 08:21:37,15.0884128,0.0002863,53.2187,180.8284,35.5279,324.5904,-1.4494e-05,-5.19e-06,0.0,0 STARLINK-3200,1 49753U 21115AF  22159.34835493 -.00000519  00000-0 -14494-4 0  9999,2 49753  53.2187 180.8284 0002863  35.5279 324.5904 15.08841280 29776,6917.876,95.437,541.722,537.761,0.0
49753.0,STARLINK-3200,PAYLOAD,2022-06-08 17:53:57,15.08836787,0.0002893,53.2186,179.0446,35.6636,324.4549,-5.0884e-05,-1.098e-05,0.0,0 STARLINK-3200,1 49753U 21115AF  22159.74579908 -.00001098  00000-0 -50884-4 0  9995,2 49753  53.2186 179.0446 0002893  35.6636 324.4549 15.08836787 28720,6917.89,95.438,541.757,537.754,0.0
49753.0,STARLINK-3200,PAYLOAD,2022-06-09 08:12:25,15.08840224,0.0002918999999999,53.2182,176.3683,35.999,324.1198,-3.9655e-05,-9.2e-06,0.0,0 STARLINK-3200,1 49753U 21115AF  22160.34195680 -.00000920  00000-0 -39655-4 0  9990,2 49753  53.2182 176.3683 0002919  35.9990 324.1198 15.08840224 28812,6917.88,95.438,541.764,537.725,0.0
49753.0,STARLINK-3200,PAYLOAD,2022-06-10 04:52:25,15.08835104,0.0002921999999999,53.2182,172.5034,37.9437,322.176,6.3569e-05,7.23e-06,0.0,0 STARLINK-3200,1 49753U 21115AF  22161.20307679  .00000723  00000-0  63569-4 0  9999,2 49753  53.2182 172.5034 0002922  37.9437 322.1760 15.08835104 30055,6917.895,95.438,541.7819999999998,537.739,0.0
49753.0,STARLINK-3200,PAYLOAD,2022-06-10 08:03:12,15.0883517,0.0002938,53.2182,171.9085,38.1705,321.9494,6.1432e-05,6.89e-06,0.0,0 STARLINK-3200,1 49753U 21115AF  22161.33555732  .00000689  00000-0  61432-4 0  9996,2 49753  53.2182 171.9085 0002938  38.1705 321.9494 15.08835170 28963,6917.895,95.438,541.793,537.7280000000002,0.0
49753.0,STARLINK-3200,PAYLOAD,2022-06-10 17:35:30,15.08836862,0.0002985,53.2183,170.1243,38.6024,321.5182,6.2454e-05,7.05e-06,0.0,0 STARLINK-3200,1 49753U 21115AF  22161.73299754  .00000705  00000-0  62454-4 0  9993,2 49753  53.2183 170.1243 0002985  38.6024 321.5182 15.08836862 29029,6917.89,95.438,541.82,537.69,0.0
49753.0,STARLINK-3200,PAYLOAD,2022-06-11 07:53:59,15.08841003,0.0003026,53.2182,167.4478,39.5163,320.6049,6.6955e-05,7.77e-06,0.0,0 STARLINK-3200,1 49753U 21115AF  22162.32915557  .00000777  00000-0  66955-4 0  9994,2 49753  53.2182 167.4478 0003026  39.5163 320.6049 15.08841003 30227,6917.877,95.437,541.836,537.649,0.0
49753.0,STARLINK-3200,PAYLOAD,2022-06-11 17:26:17,15.08842271,0.000303,53.2183,165.6639,40.531,319.5908,6.7897e-05,7.92e-06,0.0,0 STARLINK-3200,1 49753U 21115AF  22162.72659447  .00000792  00000-0  67897-4 0  9994,2 49753  53.2183 165.6639 0003030  40.5310 319.5908 15.08842271 29179,6917.873000000001,95.437,541.835,537.6419999999998,0.0
49753.0,STARLINK-3200,PAYLOAD,2022-06-12 09:20:08,15.08846036,0.0003067,53.2185,162.6902,41.9712,318.1514,7.013100000000001e-05,8.28e-06,0.0,0 STARLINK-3200,1 49753U 21115AF  22163.38899057  .00000828  00000-0  70131-4 0  9995,2 49753  53.2185 162.6902 0003067  41.9712 318.1514 15.08846036 30388,6917.861999999999,95.437,541.849,537.605,0.0
49753.0,STARLINK-3200,PAYLOAD,2022-06-12 17:17:04,15.08844495,0.0003095,53.2184,161.2033,42.5535,317.5696,5.4639e-05,5.81e-06,0.0,0 STARLINK-3200,1 49753U 21115AF  22163.72019108  .00000581  00000-0  54639-4 0  9995,2 49753  53.2184 161.2033 0003095  42.5535 317.5696 15.08844495 29321,6917.8669999999975,95.437,541.873,537.591,0.0
49753.0,STARLINK-3200,PAYLOAD,2022-06-13 06:00:10,15.08836732,0.0003133,53.2183,158.8248,44.3113,315.813,-2.6324e-05,-7.08e-06,0.0,0 STARLINK-3200,1 49753U 21115AF  22164.25011867 -.00000708  00000-0 -26324-4 0  9991,2 49753  53.2183 158.8248 0003133  44.3113 315.8130 15.08836732 30517,6917.89,95.438,541.923,537.5880000000002,0.0
49753.0,STARLINK-3200,PAYLOAD,2022-06-13 09:10:56,15.08836035,0.0003121,53.2183,158.2301,44.5758,315.5485,-3.466e-05,-8.400000000000001e-06,0.0,0 STARLINK-3200,1 49753U 21115AF  22164.38259947 -.00000840  00000-0 -34660-4 0  9997,2 49753  53.2183 158.2301 0003121  44.5758 315.5485 15.08836035 29429,6917.893,95.438,541.9169999999998,537.5980000000002,0.0
49753.0,STARLINK-3200,PAYLOAD,2022-06-13 17:07:52,15.0883872,0.0003171,53.2187,156.7439,44.9715,315.1534,-1.4743e-05,-5.23e-06,0.0,0 STARLINK-3200,1 49753U 21115AF  22164.71379751 -.00000523  00000-0 -14743-4 0  9998,2 49753  53.2187 156.7439 0003171  44.9715 315.1534 15.08838720 29479,6917.884,95.438,541.943,537.556,0.0
49753.0,STARLINK-3200,PAYLOAD,2022-06-14 05:50:56,15.08843207,0.0003139,53.2183,154.3645,45.5836,314.5413,1.4177e-05,-6.3e-07,0.0,0 STARLINK-3200,1 49753U 21115AF  22165.24371382 -.00000063  00000-0  14177-4 0  9998,2 49753  53.2183 154.3645 0003139  45.5836 314.5413 15.08843207 30661,6917.871,95.437,541.9069999999998,537.564,0.0
49753.0,STARLINK-3200,PAYLOAD,2022-06-14 18:34:01,15.08845161,0.0003168999999999,53.2181,151.986,46.1019,314.0234,3.3945e-05,2.52e-06,0.0,0 STARLINK-3200,1 49753U 21115AF  22165.77363060  .00000252  00000-0  33945-4 0  9993,2 49753  53.2181 151.9860 0003169  46.1019 314.0234 15.08845161 29636,6917.865,95.437,541.922,537.5369999999998,0.0
49753.0,STARLINK-3200,PAYLOAD,2022-06-15 04:06:21,15.08833404,0.0003183,53.2185,150.2022,43.7969,316.3275,4.9178e-05,4.94e-06,0.0,0 STARLINK-3200,1 49753U 21115AF  22166.17107828  .00000494  00000-0  49178-4 0  9999,2 49753  53.2185 150.2022 0003183  43.7969 316.3275 15.08833404 30803,6917.901,95.438,541.9680000000002,537.564,0.0
49753.0,STARLINK-3200,PAYLOAD,2022-06-15 08:52:30,15.08829469,0.0003165,53.2184,149.3099,45.8178,314.3074,1.1397e-05,-1.07e-06,0.0,0 STARLINK-3200,1 49753U 21115AF  22166.36980296 -.00000107  00000-0  11397-4 0  9992,2 49753  53.2184 149.3099 0003165  45.8178 314.3074 15.08829469 29720,6917.913000000001,95.438,541.967,537.5880000000002,0.0
49753.0,STARLINK-3200,PAYLOAD,2022-06-15 18:24:49,15.08833603,0.0003191,53.2186,147.5261,45.177,314.9481,1.3619e-05,-7.2e-07,0.0,0 STARLINK-3200,1 49753U 21115AF  22166.76724241 -.00000072  00000-0  13619-4 0  9992,2 49753  53.2186 147.5261 0003191  45.1770 314.9481 15.08833603 29782,6917.9,95.438,541.972,537.557,0.0
49753.0,STARLINK-3200,PAYLOAD,2022-06-15 23:10:59,15.08836498,0.0003178,53.2185,146.6339,46.0003,314.1251,2.437e-05,9.9e-07,0.0,0 STARLINK-3200,1 49753U 21115AF  22166.96596091  .00000099  00000-0  24370-4 0  9998,2 49753  53.2185 146.6339 0003178  46.0003 314.1251 15.08836498 29817,6917.891,95.438,541.955,537.558,0.0
49753.0,STARLINK-3200,PAYLOAD,2022-06-19 03:29:29,15.08831451,0.0003216,53.2186,132.3611,52.9877,307.1409,0.00015981,2.255e-05,0.0,0 STARLINK-3200,1 49753U 21115AF  22170.14548351  .00002255  00000-0  15981-3 0  9992,2 49753  53.2186 132.3611 0003216  52.9877 307.1409 15.08831451 30296,6917.906999999997,95.438,541.996,537.547,0.0
49753.0,STARLINK-3200,PAYLOAD,2022-06-19 14:37:11,15.08839663,0.0003066,53.2195,130.2804,50.0127,310.1134,8.223e-05,1.02e-05,0.0,0 STARLINK-3200,1 49753U 21115AF  22170.60916070  .00001020  00000-0  82230-4 0  9991,2 49753  53.2195 130.2804 0003066  50.0127 310.1134 15.08839663 31470,6917.880999999999,95.438,541.867,537.625,0.0
49753.0,STARLINK-3200,PAYLOAD,2022-06-20 03:20:17,15.08826865,0.0002992,53.2193,127.9005,51.8667,308.2595,7.1159e-05,8.44e-06,0.0,0 STARLINK-3200,1 49753U 21115AF  22171.13909041  .00000844  00000-0  71159-4 0  9991,2 49753  53.2193 127.9005 0002992  51.8667 308.2595 15.08826865 31557,6917.920999999999,95.438,541.855,537.716,0.0
49753.0,STARLINK-3200,PAYLOAD,2022-06-21 03:11:03,15.08844165,0.0003109,53.219,123.4396,55.2303,304.8982,0.00011464,1.537e-05,0.0,0 STARLINK-3200,1 49753U 21115AF  22172.13267804  .00001537  00000-0  11464-3 0  9998,2 49753  53.2190 123.4396 0003109  55.2303 304.8982 15.08844165 31706,6917.868,95.437,541.883,537.582,0.0
49753.0,STARLINK-3200,PAYLOAD,2022-06-21 06:21:49,15.08845479,0.000311,53.2191,122.8445,55.7829,304.3458,0.00011084,1.476e-05,0.0,0 STARLINK-3200,1 49753U 21115AF  22172.26515713  .00001476  00000-0  11084-3 0  9997,2 49753  53.2191 122.8445 0003110  55.7829 304.3458 15.08845479 30616,6917.864000000001,95.437,541.88,537.577,0.0
49753.0,STARLINK-3200,PAYLOAD,2022-06-21 14:18:45,15.08838466,0.000301,53.2196,121.3564,56.5465,303.5814,3.452e-05,2.61e-06,0.0,0 STARLINK-3200,1 49753U 21115AF  22172.59636348  .00000261  00000-0  34520-4 0  9993,2 49753  53.2196 121.3564 0003010  56.5465 303.5814 15.08838466 31774,6917.885,95.438,541.832,537.668,0.0
49753.0,STARLINK-3200,PAYLOAD,2022-06-21 15:54:09,15.08835352,0.000315,53.2186,121.0616,54.2358,305.8927,4.3778e-05,4.08e-06,0.0,0 STARLINK-3200,1 49753U 21115AF  22172.66260564  .00000408  00000-0  43778-4 0  9992,2 49753  53.2186 121.0616 0003150  54.2358 305.8927 15.08835352 30678,6917.895,95.438,541.939,537.58,0.0
49753.0,STARLINK-3200,PAYLOAD,2022-06-22 01:26:27,15.08840943,0.0003027,53.2192,119.278,54.4779,305.6495,8.9652e-05,1.139e-05,0.0,0 STARLINK-3200,1 49753U 21115AF  22173.06004082  .00001139  00000-0  89652-4 0  9991,2 49753  53.2192 119.2780 0003027  54.4779 305.6495 15.08840943 30735,6917.878000000002,95.437,541.837,537.648,0.0
49753.0,STARLINK-3200,PAYLOAD,2022-06-23 02:52:38,15.08838963,0.0003095,53.2193,114.5207,56.058,304.0706,-6.4571e-06,-3.91e-06,0.0,0 STARLINK-3200,1 49753U 21115AF  22174.11988676 -.00000391  00000-0 -64571-5 0  9993,2 49753  53.2193 114.5207 0003095  56.0580 304.0706 15.08838963 32000,6917.884,95.438,541.89,537.607,0.0
49753.0,STARLINK-3200,PAYLOAD,2022-06-23 12:24:56,15.08851383,0.0003136,53.2193,112.7367,56.7622,303.3671,-0.00018696,-3.264e-05,0.0,0 STARLINK-3200,1 49753U 21115AF  22174.51732355 -.00003264  00000-0 -18696-3 0  9995,2 49753  53.2193 112.7367 0003136  56.7622 303.3671 15.08851383 30953,6917.846,95.437,541.88,537.5409999999998,0.0
